[
    {
        "Altitude(m)": 611965.1782745162,
        "Argument of Periapsis(deg)": 0.0,
        "Eccentricity": 0.0,
        "Inclination(deg)": 60.0,
        "Latitude(deg)": 59.14014009860103,
        "Longitude(deg)": -131.0300667399518,
        "Mean Anomaly(deg)": 81.8182,
        "RAAN(deg)": 255.0,
        "Satellite Name": "Test1 1127",
        "Satellite Number": 1127,
        "Semi-Major Axis(m)": 6980739.136638005,
        "Time(s)": 0
    },
    {
        "Altitude(m)": 611995.8033499429,
        "Argument of Periapsis(deg)": 0.00010418945913296404,
        "Eccentricity": 0.0,
        "Inclination(deg)": 60.0,
        "Latitude(deg)": 59.283238721241986,
        "Longitude(deg)": -129.89670463889502,
        "Mean Anomaly(deg)": 82.43830614546187,
        "RAAN(deg)": 254.99957995086027,
        "Satellite Name": "Test1 1127",
        "Satellite Number": 1127,
        "Semi-Major Axis(m)": 6980739.136638005,
        "Time(s)": 10
    }
]